[{"OBJECT_NAME":"CZ-3A DEB","OBJECT_ID":"2007-003K","EPOCH":"2026-04-22T03:12:39.130272","MEAN_MOTION":2.16475802,"ECCENTRICITY":0.72199805,"INCLINATION":24.7393,"RA_OF_ASC_NODE":251.1622,"ARG_OF_PERICENTER":103.4981,"MEAN_ANOMALY":339.5492,"EPHEMERIS_TYPE":0,"CLASSIFICATION_TYPE":"U","NORAD_CAT_ID":35551,"ELEMENT_SET_NO":999,"REV_AT_EPOCH":1984,"BSTAR":-0.0052115473,"MEAN_MOTION_DOT":-4.48e-6,"MEAN_MOTION_DDOT":0},{"OBJECT_NAME":"CZ-3A DEB","OBJECT_ID":"2007-003L","EPOCH":"2026-04-23T00:24:56.213856","MEAN_MOTION":2.0273389,"ECCENTRICITY":0.74100919,"INCLINATION":25.8518,"RA_OF_ASC_NODE":73.7294,"ARG_OF_PERICENTER":99.1604,"MEAN_ANOMALY":343.2914,"EPHEMERIS_TYPE":0,"CLASSIFICATION_TYPE":"U","NORAD_CAT_ID":35552,"ELEMENT_SET_NO":999,"REV_AT_EPOCH":12941,"BSTAR":0.0035370896,"MEAN_MOTION_DOT":8.84e-6,"MEAN_MOTION_DDOT":0},{"OBJECT_NAME":"CZ-3A DEB","OBJECT_ID":"2007-003Q","EPOCH":"2026-04-22T17:19:56.017632","MEAN_MOTION":2.27135247,"ECCENTRICITY":0.72043774,"INCLINATION":25.5275,"RA_OF_ASC_NODE":281.1418,"ARG_OF_PERICENTER":15.7017,"MEAN_ANOMALY":358.1567,"EPHEMERIS_TYPE":0,"CLASSIFICATION_TYPE":"U","NORAD_CAT_ID":35556,"ELEMENT_SET_NO":999,"REV_AT_EPOCH":1421,"BSTAR":0.00079902591,"MEAN_MOTION_DOT":1.76e-6,"MEAN_MOTION_DDOT":0},{"OBJECT_NAME":"CZ-3A DEB","OBJECT_ID":"2007-003S","EPOCH":"2026-04-17T05:49:25.404960","MEAN_MOTION":1.91828564,"ECCENTRICITY":0.7474994,"INCLINATION":22.2311,"RA_OF_ASC_NODE":159.6283,"ARG_OF_PERICENTER":79.97,"MEAN_ANOMALY":349.4101,"EPHEMERIS_TYPE":0,"CLASSIFICATION_TYPE":"U","NORAD_CAT_ID":35558,"ELEMENT_SET_NO":999,"REV_AT_EPOCH":8976,"BSTAR":-0.0085702885,"MEAN_MOTION_DOT":-7.61e-6,"MEAN_MOTION_DDOT":0},{"OBJECT_NAME":"CZ-3A DEB","OBJECT_ID":"2007-003X","EPOCH":"2026-04-25T09:29:56.556672","MEAN_MOTION":1.89939127,"ECCENTRICITY":0.74774554,"INCLINATION":21.7351,"RA_OF_ASC_NODE":182.4556,"ARG_OF_PERICENTER":63.8991,"MEAN_ANOMALY":2.2265,"EPHEMERIS_TYPE":0,"CLASSIFICATION_TYPE":"U","NORAD_CAT_ID":35563,"ELEMENT_SET_NO":999,"REV_AT_EPOCH":1507,"BSTAR":0.0015534347,"MEAN_MOTION_DOT":-8.0e-7,"MEAN_MOTION_DDOT":0},{"OBJECT_NAME":"ASIASAT 5","OBJECT_ID":"2009-042A","EPOCH":"2026-04-24T19:15:53.527104","MEAN_MOTION":1.00268854,"ECCENTRICITY":0.00016731,"INCLINATION":0.061,"RA_OF_ASC_NODE":87.0873,"ARG_OF_PERICENTER":309.2096,"MEAN_ANOMALY":205.9919,"EPHEMERIS_TYPE":0,"CLASSIFICATION_TYPE":"U","NORAD_CAT_ID":35696,"ELEMENT_SET_NO":999,"REV_AT_EPOCH":6117,"BSTAR":0,"MEAN_MOTION_DOT":-3.21e-6,"MEAN_MOTION_DDOT":0},{"OBJECT_NAME":"JCSAT-12 (JCSAT-RA)","OBJECT_ID":"2009-044A","EPOCH":"2026-04-25T15:56:55.656384","MEAN_MOTION":1.00266711,"ECCENTRICITY":4.124e-5,"INCLINATION":0.0116,"RA_OF_ASC_NODE":249.8606,"ARG_OF_PERICENTER":163.1762,"MEAN_ANOMALY":171.9285,"EPHEMERIS_TYPE":0,"CLASSIFICATION_TYPE":"U","NORAD_CAT_ID":35755,"ELEMENT_SET_NO":999,"REV_AT_EPOCH":6108,"BSTAR":0,"MEAN_MOTION_DOT":0,"MEAN_MOTION_DDOT":0},{"OBJECT_NAME":"OPTUS D3","OBJECT_ID":"2009-044B","EPOCH":"2026-04-25T21:11:50.155296","MEAN_MOTION":1.00270794,"ECCENTRICITY":0.00031187,"INCLINATION":0.857,"RA_OF_ASC_NODE":270.2154,"ARG_OF_PERICENTER":119.867,"MEAN_ANOMALY":297.8997,"EPHEMERIS_TYPE":0,"CLASSIFICATION_TYPE":"U","NORAD_CAT_ID":35756,"ELEMENT_SET_NO":999,"REV_AT_EPOCH":6104,"BSTAR":0,"MEAN_MOTION_DOT":-1.61e-6,"MEAN_MOTION_DDOT":0},{"OBJECT_NAME":"NIMIQ 5","OBJECT_ID":"2009-050A","EPOCH":"2026-04-25T20:49:38.771040","MEAN_MOTION":1.00268867,"ECCENTRICITY":0.00030107,"INCLINATION":0.0218,"RA_OF_ASC_NODE":108.1624,"ARG_OF_PERICENTER":295.8677,"MEAN_ANOMALY":49.5663,"EPHEMERIS_TYPE":0,"CLASSIFICATION_TYPE":"U","NORAD_CAT_ID":35873,"ELEMENT_SET_NO":999,"REV_AT_EPOCH":6082,"BSTAR":0,"MEAN_MOTION_DOT":0,"MEAN_MOTION_DDOT":0},{"OBJECT_NAME":"AMAZONAS 2","OBJECT_ID":"2009-054A","EPOCH":"2026-04-25T20:57:38.714400","MEAN_MOTION":1.00273586,"ECCENTRICITY":0.00033934,"INCLINATION":1.6808,"RA_OF_ASC_NODE":83.676,"ARG_OF_PERICENTER":303.9428,"MEAN_ANOMALY":79.877,"EPHEMERIS_TYPE":0,"CLASSIFICATION_TYPE":"U","NORAD_CAT_ID":35942,"ELEMENT_SET_NO":999,"REV_AT_EPOCH":6066,"BSTAR":0,"MEAN_MOTION_DOT":-2.95e-6,"MEAN_MOTION_DDOT":0},{"OBJECT_NAME":"COMSATBW-1","OBJECT_ID":"2009-054B","EPOCH":"2026-04-25T23:29:50.589600","MEAN_MOTION":1.00269872,"ECCENTRICITY":0.0003594,"INCLINATION":0.0187,"RA_OF_ASC_NODE":107.9387,"ARG_OF_PERICENTER":295.8941,"MEAN_ANOMALY":225.6245,"EPHEMERIS_TYPE":0,"CLASSIFICATION_TYPE":"U","NORAD_CAT_ID":35943,"ELEMENT_SET_NO":999,"REV_AT_EPOCH":6078,"BSTAR":0,"MEAN_MOTION_DOT":0,"MEAN_MOTION_DDOT":0},{"OBJECT_NAME":"NSS-12","OBJECT_ID":"2009-058A","EPOCH":"2026-04-25T23:25:46.454304","MEAN_MOTION":1.00271946,"ECCENTRICITY":0.00050455,"INCLINATION":0.0613,"RA_OF_ASC_NODE":61.9212,"ARG_OF_PERICENTER":309.9464,"MEAN_ANOMALY":250.5525,"EPHEMERIS_TYPE":0,"CLASSIFICATION_TYPE":"U","NORAD_CAT_ID":36032,"ELEMENT_SET_NO":999,"REV_AT_EPOCH":6039,"BSTAR":0,"MEAN_MOTION_DOT":5.8e-7,"MEAN_MOTION_DDOT":0},{"OBJECT_NAME":"THOR 6","OBJECT_ID":"2009-058B","EPOCH":"2026-04-25T22:09:44.600832","MEAN_MOTION":1.00272061,"ECCENTRICITY":0.00017477,"INCLINATION":0.0386,"RA_OF_ASC_NODE":73.7247,"ARG_OF_PERICENTER":319.4232,"MEAN_ANOMALY":152.3792,"EPHEMERIS_TYPE":0,"CLASSIFICATION_TYPE":"U","NORAD_CAT_ID":36033,"ELEMENT_SET_NO":999,"REV_AT_EPOCH":6048,"BSTAR":0,"MEAN_MOTION_DOT":-2.3e-7,"MEAN_MOTION_DDOT":0},{"OBJECT_NAME":"INTELSAT 14 (IS-14)","OBJECT_ID":"2009-064A","EPOCH":"2026-04-25T21:57:08.309664","MEAN_MOTION":1.00272425,"ECCENTRICITY":0.00024888,"INCLINATION":0.0104,"RA_OF_ASC_NODE":63.2911,"ARG_OF_PERICENTER":331.3332,"MEAN_ANOMALY":103.5822,"EPHEMERIS_TYPE":0,"CLASSIFICATION_TYPE":"U","NORAD_CAT_ID":36097,"ELEMENT_SET_NO":999,"REV_AT_EPOCH":6008,"BSTAR":0,"MEAN_MOTION_DOT":-2.87e-6,"MEAN_MOTION_DDOT":0},{"OBJECT_NAME":"ATLAS 5 CENTAUR R/B","OBJECT_ID":"2009-064B","EPOCH":"2026-04-25T20:05:19.034304","MEAN_MOTION":1.76307871,"ECCENTRICITY":0.56289365,"INCLINATION":22.0397,"RA_OF_ASC_NODE":76.0457,"ARG_OF_PERICENTER":222.5125,"MEAN_ANOMALY":76.0941,"EPHEMERIS_TYPE":0,"CLASSIFICATION_TYPE":"U","NORAD_CAT_ID":36098,"ELEMENT_SET_NO":999,"REV_AT_EPOCH":10576,"BSTAR":0,"MEAN_MOTION_DOT":-4.7e-7,"MEAN_MOTION_DDOT":0},{"OBJECT_NAME":"EUTELSAT 36B","OBJECT_ID":"2009-065A","EPOCH":"2026-04-25T23:20:20.607072","MEAN_MOTION":1.00269429,"ECCENTRICITY":0.00058432,"INCLINATION":0.3609,"RA_OF_ASC_NODE":79.8312,"ARG_OF_PERICENTER":313.5024,"MEAN_ANOMALY":221.2393,"EPHEMERIS_TYPE":0,"CLASSIFICATION_TYPE":"U","NORAD_CAT_ID":36101,"ELEMENT_SET_NO":999,"REV_AT_EPOCH":6018,"BSTAR":0,"MEAN_MOTION_DOT":9.9e-7,"MEAN_MOTION_DDOT":0},{"OBJECT_NAME":"INTELSAT 15 (IS-15)","OBJECT_ID":"2009-067A","EPOCH":"2026-04-25T22:34:12.255168","MEAN_MOTION":1.00271873,"ECCENTRICITY":0.00022342,"INCLINATION":0.0293,"RA_OF_ASC_NODE":92.3225,"ARG_OF_PERICENTER":301.7107,"MEAN_ANOMALY":243.6214,"EPHEMERIS_TYPE":0,"CLASSIFICATION_TYPE":"U","NORAD_CAT_ID":36106,"ELEMENT_SET_NO":999,"REV_AT_EPOCH":4070,"BSTAR":0,"MEAN_MOTION_DOT":-1.99e-6,"MEAN_MOTION_DDOT":0}]
